{"type": "FeatureCollection", "features": [ {"type": "Feature", "properties": {"norad_id": 28659, "name": "DIRECTV 8", "group": "intelsat", "lat": 0.002448470801560019, "lon": 115.16427468538696, "alt_km": 35797.17112352421, "timestamp": "2025-12-02T10:50:46.940939+00:00", "meta": {"OBJECT_NAME": "DIRECTV 8", "OBJECT_ID": "2005-019A", "EPOCH": "2025-12-02T02:56:47.778144", "MEAN_MOTION": 1.00271203, "ECCENTRICITY": 0.0003224, "INCLINATION": 0.0133, "RA_OF_ASC_NODE": 291.2172, "ARG_OF_PERICENTER": 327.3089, "MEAN_ANOMALY": 97.8685, "EPHEMERIS_TYPE": 0, "CLASSIFICATION_TYPE": "U", "NORAD_CAT_ID": 28659, "ELEMENT_SET_NO": 999, "REV_AT_EPOCH": 7509, "BSTAR": 0, "MEAN_MOTION_DOT": 2.2e-07, "MEAN_MOTION_DDOT": 0}, "tle": {"line1": "1 28659U 05019A   25336.12277521  .00000022  00000+0  00000+0 0  9993", "line2": "2 28659   0.0133 291.2172 0003224 327.3089  97.8685  1.00271203 75096"}}, "geometry": {"type": "Point", "coordinates": [115.16427468538696, 0.002448470801560019]}}, {"type": "Feature", "properties": {"norad_id": 28702, "name": "GALAXY 28 (G-28)", "group": "intelsat", "lat": 2.508242027995213, "lon": 145.4580783468038, "alt_km": 35791.15351591204, "timestamp": "2025-12-02T10:50:46.940951+00:00", "meta": {"OBJECT_NAME": "GALAXY 28 (G-28)", "OBJECT_ID": "2005-022A", "EPOCH": "2025-12-02T03:05:24.451872", "MEAN_MOTION": 1.00270647, "ECCENTRICITY": 0.000266, "INCLINATION": 2.7916, "RA_OF_ASC_NODE": 81.4017, "ARG_OF_PERICENTER": 180.9183, "MEAN_ANOMALY": 126.5553, "EPHEMERIS_TYPE": 0, "CLASSIFICATION_TYPE": "U", "NORAD_CAT_ID": 28702, "ELEMENT_SET_NO": 999, "REV_AT_EPOCH": 4999, "BSTAR": 0, "MEAN_MOTION_DOT": -1.66e-06, "MEAN_MOTION_DDOT": 0}, "tle": {"line1": "1 28702U 05022A   25336.12875523 -.00000166  00000+0  00000+0 0  9992", "line2": "2 28702   2.7916  81.4017 0002660 180.9183 126.5553  1.00270647 49996"}}, "geometry": {"type": "Point", "coordinates": [145.4580783468038, 2.508242027995213]}}, {"type": "Feature", "properties": {"norad_id": 29236, "name": "GALAXY 16 (G-16)", "group": "intelsat", "lat": -0.020600003774315725, "lon": 135.18811877730494, "alt_km": 35791.89652495086, "timestamp": "2025-12-02T10:50:46.940963+00:00", "meta": {"OBJECT_NAME": "GALAXY 16 (G-16)", "OBJECT_ID": "2006-023A", "EPOCH": "2025-12-02T03:02:24.739008", "MEAN_MOTION": 1.00270302, "ECCENTRICITY": 0.000284, "INCLINATION": 0.0261, "RA_OF_ASC_NODE": 223.3727, "ARG_OF_PERICENTER": 28.4644, "MEAN_ANOMALY": 125.9973, "EPHEMERIS_TYPE": 0, "CLASSIFICATION_TYPE": "U", "NORAD_CAT_ID": 29236, "ELEMENT_SET_NO": 999, "REV_AT_EPOCH": 7099, "BSTAR": 0, "MEAN_MOTION_DOT": -1.06e-06, "MEAN_MOTION_DDOT": 0}, "tle": {"line1": "1 29236U 06023A   25336.12667522 -.00000106  00000+0  00000+0 0  9999", "line2": "2 29236   0.0261 223.3727 0002840  28.4644 125.9973  1.00270302 70997"}}, "geometry": {"type": "Point", "coordinates": [135.18811877730494, -0.020600003774315725]}}, {"type": "Feature", "properties": {"norad_id": 29494, "name": "DIRECTV 9S", "group": "intelsat", "lat": 1.4581690405127958, "lon": 132.97697996675657, "alt_km": 35792.09446082014, "timestamp": "2025-12-02T10:50:46.940975+00:00", "meta": {"OBJECT_NAME": "DIRECTV 9S", "OBJECT_ID": "2006-043A", "EPOCH": "2025-12-02T03:01:47.299296", "MEAN_MOTION": 1.00270709, "ECCENTRICITY": 0.0003142, "INCLINATION": 1.9104, "RA_OF_ASC_NODE": 83.323, "ARG_OF_PERICENTER": 165.9727, "MEAN_ANOMALY": 126.1868, "EPHEMERIS_TYPE": 0, "CLASSIFICATION_TYPE": "U", "NORAD_CAT_ID": 29494, "ELEMENT_SET_NO": 999, "REV_AT_EPOCH": 4940, "BSTAR": 0, "MEAN_MOTION_DOT": -9.2e-07, "MEAN_MOTION_DDOT": 0}, "tle": {"line1": "1 29494U 06043A   25336.12624189 -.00000092  00000+0  00000+0 0  9993", "line2": "2 29494   1.9104  83.3230 0003142 165.9727 126.1868  1.00270709 49406"}}, "geometry": {"type": "Point", "coordinates": [132.97697996675657, 1.4581690405127958]}}, {"type": "Feature", "properties": {"norad_id": 31307, "name": "GALAXY 17 (G-17)", "group": "intelsat", "lat": 2.265867280559943, "lon": 149.14154587548444, "alt_km": 35785.765965128594, "timestamp": "2025-12-02T10:50:46.940986+00:00", "meta": {"OBJECT_NAME": "GALAXY 17 (G-17)", "OBJECT_ID": "2007-016B", "EPOCH": "2025-12-02T03:06:24.357312", "MEAN_MOTION": 1.00270148, "ECCENTRICITY": 0.0006122, "INCLINATION": 2.4709, "RA_OF_ASC_NODE": 82.4076, "ARG_OF_PERICENTER": 155.5773, "MEAN_ANOMALY": 154.8609, "EPHEMERIS_TYPE": 0, "CLASSIFICATION_TYPE": "U", "NORAD_CAT_ID": 31307, "ELEMENT_SET_NO": 999, "REV_AT_EPOCH": 6782, "BSTAR": 0, "MEAN_MOTION_DOT": -1.85e-06, "MEAN_MOTION_DDOT": 0}, "tle": {"line1": "1 31307U 07016B   25336.12944858 -.00000185  00000+0  00000+0 0  9991", "line2": "2 31307   2.4709  82.4076 0006122 155.5773 154.8609  1.00270148 67828"}}, "geometry": {"type": "Point", "coordinates": [149.14154587548444, 2.265867280559943]}}, {"type": "Feature", "properties": {"norad_id": 31862, "name": "DIRECTV 10", "group": "intelsat", "lat": 0.0041967366242756645, "lon": 131.42896490956127, "alt_km": 35785.67674983159, "timestamp": "2025-12-02T10:50:46.941005+00:00", "meta": {"OBJECT_NAME": "DIRECTV 10", "OBJECT_ID": "2007-032A", "EPOCH": "2025-12-02T03:01:24.835296", "MEAN_MOTION": 1.0027088, "ECCENTRICITY": 2.1e-05, "INCLINATION": 0.002, "RA_OF_ASC_NODE": 102.1876, "ARG_OF_PERICENTER": 70.1716, "MEAN_ANOMALY": 201.4374, "EPHEMERIS_TYPE": 0, "CLASSIFICATION_TYPE": "U", "NORAD_CAT_ID": 31862, "ELEMENT_SET_NO": 999, "REV_AT_EPOCH": 4361, "BSTAR": 0, "MEAN_MOTION_DOT": -8.2e-07, "MEAN_MOTION_DDOT": 0}, "tle": {"line1": "1 31862U 07032A   25336.12598189 -.00000082  00000+0  00000+0 0  9993", "line2": "2 31862   0.0020 102.1876 0000210  70.1716 201.4374  1.00270880 43615"}}, "geometry": {"type": "Point", "coordinates": [131.42896490956127, 0.0041967366242756645]}}, {"type": "Feature", "properties": {"norad_id": 32253, "name": "INTELSAT 11 (IS-11)", "group": "intelsat", "lat": 2.739925456521983, "lon": 145.09266166551342, "alt_km": 36136.77573463839, "timestamp": "2025-12-02T10:50:46.941016+00:00", "meta": {"OBJECT_NAME": "INTELSAT 11 (IS-11)", "OBJECT_ID": "2007-044B", "EPOCH": "2025-12-02T03:05:46.915872", "MEAN_MOTION": 0.99047526, "ECCENTRICITY": 0.0009246, "INCLINATION": 3.0502, "RA_OF_ASC_NODE": 81.0954, "ARG_OF_PERICENTER": 160.2519, "MEAN_ANOMALY": 148.7621, "EPHEMERIS_TYPE": 0, "CLASSIFICATION_TYPE": "U", "NORAD_CAT_ID": 32253, "ELEMENT_SET_NO": 999, "REV_AT_EPOCH": 6649, "BSTAR": 0, "MEAN_MOTION_DOT": -1.6e-07, "MEAN_MOTION_DDOT": 0}, "tle": {"line1": "1 32253U 07044B   25336.12901523 -.00000016  00000+0  00000+0 0  9998", "line2": "2 32253   3.0502  81.0954 0009246 160.2519 148.7621  0.99047526 66495"}}, "geometry": {"type": "Point", "coordinates": [145.09266166551342, 2.739925456521983]}}, {"type": "Feature", "properties": {"norad_id": 32388, "name": "HORIZONS-2", "group": "intelsat", "lat": 2.0311261093546547, "lon": 160.37593853252358, "alt_km": 35789.91599918537, "timestamp": "2025-12-02T10:50:46.941028+00:00", "meta": {"OBJECT_NAME": "HORIZONS-2", "OBJECT_ID": "2007-063B", "EPOCH": "2025-12-02T01:26:56.451840", "MEAN_MOTION": 1.0027259, "ECCENTRICITY": 0.0004889, "INCLINATION": 2.0914, "RA_OF_ASC_NODE": 83.0787, "ARG_OF_PERICENTER": 179.4198, "MEAN_ANOMALY": 116.6182, "EPHEMERIS_TYPE": 0, "CLASSIFICATION_TYPE": "U", "NORAD_CAT_ID": 32388, "ELEMENT_SET_NO": 999, "REV_AT_EPOCH": 6583, "BSTAR": 0, "MEAN_MOTION_DOT": -2.33e-06, "MEAN_MOTION_DDOT": 0}, "tle": {"line1": "1 32388U 07063B   25336.06037560 -.00000233  00000+0  00000+0 0  9993", "line2": "2 32388   2.0914  83.0787 0004889 179.4198 116.6182  1.00272590 65836"}}, "geometry": {"type": "Point", "coordinates": [160.37593853252358, 2.0311261093546547]}}, {"type": "Feature", "properties": {"norad_id": 32729, "name": "DIRECTV 11", "group": "intelsat", "lat": -0.001753972139811615, "lon": 135.0374624277854, "alt_km": 35783.04475717631, "timestamp": "2025-12-02T10:50:46.941039+00:00", "meta": {"OBJECT_NAME": "DIRECTV 11", "OBJECT_ID": "2008-013A", "EPOCH": "2025-12-02T03:02:24.739008", "MEAN_MOTION": 1.00274738, "ECCENTRICITY": 6.26e-05, "INCLINATION": 0.0121, "RA_OF_ASC_NODE": 206.4809, "ARG_OF_PERICENTER": 320.7543, "MEAN_ANOMALY": 210.4179, "EPHEMERIS_TYPE": 0, "CLASSIFICATION_TYPE": "U", "NORAD_CAT_ID": 32729, "ELEMENT_SET_NO": 999, "REV_AT_EPOCH": 4361, "BSTAR": 0, "MEAN_MOTION_DOT": -1.05e-06, "MEAN_MOTION_DDOT": 0}, "tle": {"line1": "1 32729U 08013A   25336.12667522 -.00000105  00000+0  00000+0 0  9990", "line2": "2 32729   0.0121 206.4809 0000626 320.7543 210.4179  1.00274738 43616"}}, "geometry": {"type": "Point", "coordinates": [135.0374624277854, -0.001753972139811615]}}, {"type": "Feature", "properties": {"norad_id": 32951, "name": "GALAXY 18 (G-18)", "group": "intelsat", "lat": 0.026532059767125492, "lon": 111.17225444850098, "alt_km": 35797.387117836704, "timestamp": "2025-12-02T10:50:46.941051+00:00", "meta": {"OBJECT_NAME": "GALAXY 18 (G-18)", "OBJECT_ID": "2008-024A", "EPOCH": "2025-12-02T02:55:40.385280", "MEAN_MOTION": 1.00272475, "ECCENTRICITY": 0.0003391, "INCLINATION": 0.0216, "RA_OF_ASC_NODE": 340.739, "ARG_OF_PERICENTER": 273.8284, "MEAN_ANOMALY": 97.5532, "EPHEMERIS_TYPE": 0, "CLASSIFICATION_TYPE": "U", "NORAD_CAT_ID": 32951, "ELEMENT_SET_NO": 999, "REV_AT_EPOCH": 4387, "BSTAR": 0, "MEAN_MOTION_DOT": 0, "MEAN_MOTION_DDOT": 0}, "tle": {"line1": "1 32951U 08024A   25336.12199520  .00000000  00000+0  00000+0 0  9990", "line2": "2 32951   0.0216 340.7390 0003391 273.8284  97.5532  1.00272475 43878"}}, "geometry": {"type": "Point", "coordinates": [111.17225444850098, 0.026532059767125492]}}]}